{
  "type": "FeatureCollection",
  "features": [
    {
      "type": "Feature",
      "properties": {
        "norad_id": 33805,
        "name": "COSMOS 2251 DEB",
        "group": "cosmos-2251-debris",
        "lat": -43.589391208105866,
        "lon": -48.96002770750457,
        "alt_km": 745.6812683352218,
        "timestamp": "2025-12-04T13:52:00.834228+00:00",
        "meta_object_name": "COSMOS 2251 DEB",
        "meta_object_id": "1993-036AW",
        "meta_epoch": "2025-12-04T07:29:28.606560",
        "meta_mean_motion": 14.57826507,
        "meta_eccentricity": 0.00605609,
        "meta_inclination": 74.0305,
        "meta_ra_of_asc_node": 327.3638,
        "meta_arg_of_pericenter": 158.7029,
        "meta_mean_anomaly": 201.6678,
        "meta_ephemeris_type": 0,
        "meta_classification_type": "U",
        "meta_norad_cat_id": 33805,
        "meta_element_set_no": 999,
        "meta_rev_at_epoch": 89104,
        "meta_bstar": 0.00047384455,
        "meta_mean_motion_dot": 2.194e-05,
        "meta_mean_motion_ddot": 0,
        "tle_line1": "1 33805U 93036AW  25338.31213665  .00002194  00000+0  47384-3 0  9992",
        "tle_line2": "2 33805  74.0305 327.3638 0060560 158.7029 201.6678 14.57826507891048"
      },
      "geometry": {
        "type": "Point",
        "coordinates": [
          -48.96002770750457,
          -43.589391208105866
        ]
      }
    },
    {
      "type": "Feature",
      "properties": {
        "norad_id": 33811,
        "name": "COSMOS 2251 DEB",
        "group": "cosmos-2251-debris",
        "lat": -52.373924336544825,
        "lon": 161.6810708525747,
        "alt_km": 579.255386008901,
        "timestamp": "2025-12-04T13:52:00.834238+00:00",
        "meta_object_name": "COSMOS 2251 DEB",
        "meta_object_id": "1993-036BC",
        "meta_epoch": "2025-12-04T06:56:55.769568",
        "meta_mean_motion": 15.0484535,
        "meta_eccentricity": 0.00308061,
        "meta_inclination": 73.8372,
        "meta_ra_of_asc_node": 320.1768,
        "meta_arg_of_pericenter": 42.2751,
        "meta_mean_anomaly": 72.3421,
        "meta_ephemeris_type": 0,
        "meta_classification_type": "U",
        "meta_norad_cat_id": 33811,
        "meta_element_set_no": 999,
        "meta_rev_at_epoch": 89891,
        "meta_bstar": 0.0027344754,
        "meta_mean_motion_dot": 0.00039236,
        "meta_mean_motion_ddot": 0,
        "tle_line1": "1 33811U 93036BC  25338.28953437  .00039236  00000+0  27345-2 0  9994",
        "tle_line2": "2 33811  73.8372 320.1768 0030806  42.2751  72.3421 15.04845350898912"
      },
      "geometry": {
        "type": "Point",
        "coordinates": [
          161.6810708525747,
          -52.373924336544825
        ]
      }
    },
    {
      "type": "Feature",
      "properties": {
        "norad_id": 33815,
        "name": "COSMOS 2251 DEB",
        "group": "cosmos-2251-debris",
        "lat": -33.503108674592745,
        "lon": -177.29467741344192,
        "alt_km": 525.807605587841,
        "timestamp": "2025-12-04T13:52:00.834249+00:00",
        "meta_object_name": "COSMOS 2251 DEB",
        "meta_object_id": "1993-036BG",
        "meta_epoch": "2025-12-04T00:16:31.408896",
        "meta_mean_motion": 15.14996402,
        "meta_eccentricity": 0.00042403,
        "meta_inclination": 73.9554,
        "meta_ra_of_asc_node": 194.871,
        "meta_arg_of_pericenter": 242.2418,
        "meta_mean_anomaly": 235.1772,
        "meta_ephemeris_type": 0,
        "meta_classification_type": "U",
        "meta_norad_cat_id": 33815,
        "meta_element_set_no": 999,
        "meta_rev_at_epoch": 88238,
        "meta_bstar": 0.011246177,
        "meta_mean_motion_dot": 0.00216461,
        "meta_mean_motion_ddot": 0,
        "tle_line1": "1 33815U 93036BG  25338.01147464  .00216461  00000+0  11246-1 0  9993",
        "tle_line2": "2 33815  73.9554 194.8710 0004240 242.2418 235.1772 15.14996402882385"
      },
      "geometry": {
        "type": "Point",
        "coordinates": [
          -177.29467741344192,
          -33.503108674592745
        ]
      }
    },
    {
      "type": "Feature",
      "properties": {
        "norad_id": 33816,
        "name": "COSMOS 2251 DEB",
        "group": "cosmos-2251-debris",
        "lat": -6.87534775820309,
        "lon": -58.774586392869736,
        "alt_km": 841.4498511446945,
        "timestamp": "2025-12-04T13:52:00.834287+00:00",
        "meta_object_name": "COSMOS 2251 DEB",
        "meta_object_id": "1993-036BH",
        "meta_epoch": "2025-12-04T02:33:41.335488",
        "meta_mean_motion": 13.81763929,
        "meta_eccentricity": 0.02652631,
        "meta_inclination": 73.8938,
        "meta_ra_of_asc_node": 120.0271,
        "meta_arg_of_pericenter": 134.6291,
        "meta_mean_anomaly": 227.6804,
        "meta_ephemeris_type": 0,
        "meta_classification_type": "U",
        "meta_norad_cat_id": 33816,
        "meta_element_set_no": 999,
        "meta_rev_at_epoch": 84554,
        "meta_bstar": 0.0010031037,
        "meta_mean_motion_dot": 1.381e-05,
        "meta_mean_motion_ddot": 0,
        "tle_line1": "1 33816U 93036BH  25338.10672842  .00001381  00000+0  10031-2 0  9992",
        "tle_line2": "2 33816  73.8938 120.0271 0265263 134.6291 227.6804 13.81763929845548"
      },
      "geometry": {
        "type": "Point",
        "coordinates": [
          -58.774586392869736,
          -6.87534775820309
        ]
      }
    },
    {
      "type": "Feature",
      "properties": {
        "norad_id": 33818,
        "name": "COSMOS 2251 DEB",
        "group": "cosmos-2251-debris",
        "lat": -11.693627904581447,
        "lon": 179.7123236321208,
        "alt_km": 555.463499617852,
        "timestamp": "2025-12-04T13:52:00.834309+00:00",
        "meta_object_name": "COSMOS 2251 DEB",
        "meta_object_id": "1993-036BK",
        "meta_epoch": "2025-12-04T00:11:27.788064",
        "meta_mean_motion": 15.11482865,
        "meta_eccentricity": 0.00290575,
        "meta_inclination": 74.0753,
        "meta_ra_of_asc_node": 184.2758,
        "meta_arg_of_pericenter": 175.8605,
        "meta_mean_anomaly": 312.6916,
        "meta_ephemeris_type": 0,
        "meta_classification_type": "U",
        "meta_norad_cat_id": 33818,
        "meta_element_set_no": 999,
        "meta_rev_at_epoch": 89730,
        "meta_bstar": 0.0039354339,
        "meta_mean_motion_dot": 0.00067891,
        "meta_mean_motion_ddot": 0,
        "tle_line1": "1 33818U 93036BK  25338.00796051  .00067891  00000+0  39354-2 0  9999",
        "tle_line2": "2 33818  74.0753 184.2758 0029057 175.8605 312.6916 15.11482865897307"
      },
      "geometry": {
        "type": "Point",
        "coordinates": [
          179.7123236321208,
          -11.693627904581447
        ]
      }
    },
    {
      "type": "Feature",
      "properties": {
        "norad_id": 33819,
        "name": "COSMOS 2251 DEB",
        "group": "cosmos-2251-debris",
        "lat": -60.88613453065037,
        "lon": -165.9975693294118,
        "alt_km": 848.131294469642,
        "timestamp": "2025-12-04T13:52:00.834324+00:00",
        "meta_object_name": "COSMOS 2251 DEB",
        "meta_object_id": "1993-036BL",
        "meta_epoch": "2025-12-04T02:59:36.816288",
        "meta_mean_motion": 14.32174938,
        "meta_eccentricity": 0.00887697,
        "meta_inclination": 74.1797,
        "meta_ra_of_asc_node": 225.4271,
        "meta_arg_of_pericenter": 89.385,
        "meta_mean_anomaly": 30.9437,
        "meta_ephemeris_type": 0,
        "meta_classification_type": "U",
        "meta_norad_cat_id": 33819,
        "meta_element_set_no": 999,
        "meta_rev_at_epoch": 87372,
        "meta_bstar": 0.0013009123,
        "meta_mean_motion_dot": 3.636e-05,
        "meta_mean_motion_ddot": 0,
        "tle_line1": "1 33819U 93036BL  25338.12473167  .00003636  00000+0  13009-2 0  9999",
        "tle_line2": "2 33819  74.1797 225.4271 0088769  89.3850  30.9437 14.32174938873720"
      },
      "geometry": {
        "type": "Point",
        "coordinates": [
          -165.9975693294118,
          -60.88613453065037
        ]
      }
    },
    {
      "type": "Feature",
      "properties": {
        "norad_id": 33821,
        "name": "COSMOS 2251 DEB",
        "group": "cosmos-2251-debris",
        "lat": 47.542746511716565,
        "lon": -38.15850800103871,
        "alt_km": 472.2187891641652,
        "timestamp": "2025-12-04T13:52:00.834335+00:00",
        "meta_object_name": "COSMOS 2251 DEB",
        "meta_object_id": "1993-036BN",
        "meta_epoch": "2025-12-03T21:32:49.010208",
        "meta_mean_motion": 15.24506377,
        "meta_eccentricity": 0.0054185,
        "meta_inclination": 74.0295,
        "meta_ra_of_asc_node": 161.5173,
        "meta_arg_of_pericenter": 197.4016,
        "meta_mean_anomaly": 162.5329,
        "meta_ephemeris_type": 0,
        "meta_classification_type": "U",
        "meta_norad_cat_id": 33821,
        "meta_element_set_no": 999,
        "meta_rev_at_epoch": 74866,
        "meta_bstar": 0.0018774,
        "meta_mean_motion_dot": 0.0004841,
        "meta_mean_motion_ddot": 0,
        "tle_line1": "1 33821U 93036BN  25337.89778947  .00048410  00000+0  18774-2 0  9992",
        "tle_line2": "2 33821  74.0295 161.5173 0054185 197.4016 162.5329 15.24506377748660"
      },
      "geometry": {
        "type": "Point",
        "coordinates": [
          -38.15850800103871,
          47.542746511716565
        ]
      }
    }
  ]
}